NORAD_CAT_ID,OBJECT_NAME,OBJECT_TYPE,EPOCH,MEAN_MOTION,ECCENTRICITY,INCLINATION,RA_OF_ASC_NODE,ARG_OF_PERICENTER,MEAN_ANOMALY,BSTAR,MEAN_MOTION_DOT,MEAN_MOTION_DDOT,TLE_LINE0,TLE_LINE1,TLE_LINE2,SEMIMAJOR_AXIS,PERIOD,APOGEE,PERIGEE,DECAYED
49146.0,STARLINK-3116,PAYLOAD,2022-04-25 22:00:00,14.96731396,0.0003216,69.9976,238.2968,279.4252,194.3512,-0.0036098,-0.00041183,0.0,0 STARLINK-3116,1 49146U 21082S   22115.91667824 -.00041183  00000-0 -36098-2 0  9998,2 49146  69.9976 238.2968 0003216 279.4252 194.3512 14.96731396  3606,6955.141,96.21,579.243,574.769,0.0
49146.0,STARLINK-3116,PAYLOAD,2022-04-26 06:00:00,14.9668937,0.0003202,69.9979,237.4584,273.6566,195.6775,0.0060714,0.00070055,0.0,0 STARLINK-3116,1 49146U 21082S   22116.25001157  .00070055  00000-0  60714-2 0  9997,2 49146  69.9979 237.4584 0003202 273.6566 195.6775 14.96689370 35944,6955.271,96.212,579.363,574.909,0.0
49146.0,STARLINK-3116,PAYLOAD,2022-04-26 14:00:01,14.96725993,0.0003214,69.9981,236.62,278.0631,186.874,-0.00093893,-0.00010825,0.0,0 STARLINK-3116,1 49146U 21082S   22116.58335648 -.00010825  00000-0 -93893-3 0  9994,2 49146  69.9981 236.6200 0003214 278.0631 186.8740 14.96725993 35999,6955.158,96.21,579.258,574.7869999999998,0.0
49146.0,STARLINK-3116,PAYLOAD,2022-04-26 22:00:00,14.96741382,0.00031,69.9978,235.7815,280.3825,180.043,-0.0058482,-0.00066441,0.0,0 STARLINK-3116,1 49146U 21082S   22116.91667824 -.00066441  00000-0 -58482-2 0  9994,2 49146  69.9978 235.7815 0003100 280.3825 180.0430 14.96741382  3584,6955.11,96.209,579.131,574.819,0.0
49146.0,STARLINK-3116,PAYLOAD,2022-04-27 14:00:01,14.96717758,0.0003142,69.9984,234.1046,278.85900000000004,172.7249,-0.00011446,-1.402e-05,0.0,0 STARLINK-3116,1 49146U 21082S   22117.58335648 -.00001402  00000-0 -11446-3 0  9990,2 49146  69.9984 234.1046 0003142 278.8590 172.7249 14.96717758  3583,6955.183000000001,96.211,579.2330000000002,574.863,0.0
49146.0,STARLINK-3116,PAYLOAD,2022-04-27 22:00:00,14.96750044,0.000318,69.9981,233.2661,280.2159,166.856,-0.0063468,-0.00072056,0.0,0 STARLINK-3116,1 49146U 21082S   22117.91667824 -.00072056  00000-0 -63468-2 0  9994,2 49146  69.9981 233.2661 0003180 280.2159 166.8560 14.96750044 36191,6955.083000000001,96.208,579.16,574.736,0.0
49146.0,STARLINK-3116,PAYLOAD,2022-04-28 06:00:00,14.9669383,0.0003211,69.9984,232.4276,273.9047,168.7323,0.0056838,0.00065542,0.0,0 STARLINK-3116,1 49146U 21082S   22118.25001157  .00065542  00000-0  56838-2 0  9996,2 49146  69.9984 232.4276 0003211 273.9047 168.7323 14.96693830 36240,6955.257,96.212,579.356,574.889,0.0
49146.0,STARLINK-3116,PAYLOAD,2022-04-28 14:00:01,14.96734683,0.0003276,69.9988,231.5892,278.4225,159.7657,-0.00088198,-0.00010177,0.0,0 STARLINK-3116,1 49146U 21082S   22118.58334491 -.00010177  00000-0 -88198-3 0  9993,2 49146  69.9988 231.5892 0003276 278.4225 159.7657 14.96734683  3580,6955.130999999999,96.209,579.274,574.717,0.0
49146.0,STARLINK-3116,PAYLOAD,2022-04-28 22:00:01,14.96756459,0.0003259,69.9985,230.7506,279.2274,154.5899,-0.0066751999999999,-0.00075753,0.0,0 STARLINK-3116,1 49146U 21082S   22118.91668981 -.00075753  00000-0 -66752-2 0  9996,2 49146  69.9985 230.7506 0003259 279.2274 154.5899 14.96756459 36339,6955.063,96.208,579.195,574.6619999999998,0.0
49146.0,STARLINK-3116,PAYLOAD,2022-04-29 14:00:01,14.96721105,0.0003338,69.999,229.0739,278.0745,146.7808,-0.0022362,-0.00025597,0.0,0 STARLINK-3116,1 49146U 21082S   22119.58334491 -.00025597  00000-0 -22362-2 0  9996,2 49146  69.9990 229.0739 0003338 278.0745 146.7808 14.96721105 36436,6955.1730000000025,96.21,579.359,574.716,0.0
49146.0,STARLINK-3116,PAYLOAD,2022-04-29 22:00:00,14.96727737,0.0003236,69.9988,228.2353,279.2524,141.1471,-0.0073259,-0.00082982,0.0,0 STARLINK-3116,1 49146U 21082S   22119.91667824 -.00082982  00000-0 -73259-2 0  9994,2 49146  69.9988 228.2353 0003236 279.2524 141.1471 14.96727737  3583,6955.151999999999,96.21,579.268,574.766,0.0
49146.0,STARLINK-3116,PAYLOAD,2022-04-30 14:00:01,14.96682496,0.0003232,69.9992,226.5587,278.3437,133.0863,0.0010579,0.00012028,0.0,0 STARLINK-3116,1 49146U 21082S   22120.58334491  .00012028  00000-0  10579-2 0  9998,2 49146  69.9992 226.5587 0003232 278.3437 133.0863 14.96682496  3562,6955.292,96.213,579.405,574.909,0.0
49146.0,STARLINK-3116,PAYLOAD,2022-04-30 22:00:00,14.96722648,0.0003221,69.999,225.7202,278.7137,128.2316,-0.0034687,-0.00039577,0.0,0 STARLINK-3116,1 49146U 21082S   22120.91667824 -.00039577  00000-0 -34687-2 0  9990,2 49146  69.9990 225.7202 0003221 278.7137 128.2316 14.96722648 36631,6955.168000000002,96.21,579.273,574.793,0.0
49146.0,STARLINK-3116,PAYLOAD,2022-05-01 14:00:01,14.9671295,0.0003248,69.9992,224.0437,279.0316,118.9916,-0.0002992,-3.514e-05,0.0,0 STARLINK-3116,1 49146U 21082S   22121.58334491 -.00003514  00000-0 -29920-3 0  9992,2 49146  69.9992 224.0437 0003248 279.0316 118.9916 14.96712950 36735,6955.198,96.211,579.322,574.804,0.0
49146.0,STARLINK-3116,PAYLOAD,2022-05-01 22:00:01,14.96727792,0.0003135,69.9988,223.2054,279.2448,114.3846,-0.0053161,-0.00060435,0.0,0 STARLINK-3116,1 49146U 21082S   22121.91668981 -.00060435  00000-0 -53161-2 0  9991,2 49146  69.9988 223.2054 0003135 279.2448 114.3846 14.96727792  3599,6955.151999999999,96.21,579.197,574.837,0.0
49146.0,STARLINK-3116,PAYLOAD,2022-05-02 14:00:01,14.96695071,0.0003154,69.999,221.5288,279.8458,104.7855,0.001527,0.00017421,0.0,0 STARLINK-3116,1 49146U 21082S   22122.58334491  .00017421  00000-0  15270-2 0  9995,2 49146  69.9990 221.5288 0003154 279.8458 104.7855 14.96695071  3586,6955.253000000002,96.212,579.312,574.925,0.0
49146.0,STARLINK-3116,PAYLOAD,2022-05-02 22:00:01,14.9673163,0.0003121,69.9986,220.6904,279.2834,100.9391,-0.0039625,-0.00045172,0.0,0 STARLINK-3116,1 49146U 21082S   22122.91668981 -.00045172  00000-0 -39625-2 0  9992,2 49146  69.9986 220.6904 0003121 279.2834 100.9391 14.96731630 36932,6955.14,96.21,579.1759999999998,574.8340000000002,0.0
49146.0,STARLINK-3116,PAYLOAD,2022-05-03 14:00:01,14.96711123,0.000319,69.9988,219.0136,279.5644,91.6933,0.0016120999999999,0.00018407,0.0,0 STARLINK-3116,1 49146U 21082S   22123.58334491  .00018407  00000-0  16121-2 0  9997,2 49146  69.9988 219.0136 0003190 279.5644  91.6933 14.96711123 37036,6955.204000000002,96.211,579.2869999999998,574.85,0.0
49146.0,STARLINK-3116,PAYLOAD,2022-05-03 22:00:00,14.96744199,0.0003184,69.9988,218.1775,278.0581,88.74600000000002,-0.0041724,-0.0004756,0.0,0 STARLINK-3116,1 49146U 21082S   22123.91667824 -.00047560  00000-0 -41724-2 0  9994,2 49146  69.9988 218.1775 0003184 278.0581  88.7460 14.96744199  3586,6955.101,96.209,579.181,574.752,0.0
49146.0,STARLINK-3116,PAYLOAD,2022-05-04 14:00:01,14.96736707,0.0003253,69.9984,216.4983,278.7804,79.169,0.00025687,2.851e-05,0.0,0 STARLINK-3116,1 49146U 21082S   22124.58334491  .00002851  00000-0  25687-3 0  9992,2 49146  69.9984 216.4983 0003253 278.7804  79.1690 14.96736707  3581,6955.124,96.209,579.252,574.727,0.0
49146.0,STARLINK-3116,PAYLOAD,2022-05-04 20:00:01,14.9676462,0.0003241,69.998,215.8694,278.895,345.7936,-0.0066234,-0.00075188,0.0,0 STARLINK-3116,1 49146U 21082S   22124.83335648 -.00075188  00000-0 -66234-2 0  9992,2 49146  69.9980 215.8694 0003241 278.8950 345.7936 14.96764620 37227,6955.038000000001,96.208,579.1569999999998,574.649,0.0
49146.0,STARLINK-3116,PAYLOAD,2022-05-04 22:00:01,14.96747607,0.0003201,69.998,215.6598,277.753,75.8357,-0.0052022,-0.00059183,0.0,0 STARLINK-3116,1 49146U 21082S   22124.91668981 -.00059183  00000-0 -52022-2 0  9997,2 49146  69.9980 215.6598 0003201 277.7530  75.8357 14.96747607  3582,6955.090999999999,96.209,579.182,574.729,0.0
49146.0,STARLINK-3116,PAYLOAD,2022-05-05 06:00:00,14.96725845,0.0003181,69.9983,214.8215,272.7847,76.2986,0.0018823,0.00021525,0.0,0 STARLINK-3116,1 49146U 21082S   22125.25001157  .00021525  00000-0  18823-2 0  9999,2 49146  69.9983 214.8215 0003181 272.7847  76.2986 14.96725845 37282,6955.158,96.21,579.235,574.811,0.0
49146.0,STARLINK-3116,PAYLOAD,2022-05-05 14:00:01,14.9672917,0.0003196,69.9982,213.9831,278.8969,65.7536,-0.0017709,-0.00020309,0.0,0 STARLINK-3116,1 49146U 21082S   22125.58334491 -.00020309  00000-0 -17709-2 0  9998,2 49146  69.9982 213.9831 0003196 278.8969  65.7536 14.96729170  3599,6955.148,96.21,579.236,574.79,0.0
49146.0,STARLINK-3116,PAYLOAD,2022-05-05 22:00:00,14.96720823,0.0003126,69.9979,213.1446,277.6042,62.6015,-0.0031984,-0.00036514,0.0,0 STARLINK-3116,1 49146U 21082S   22125.91667824 -.00036514  00000-0 -31984-2 0  9990,2 49146  69.9979 213.1446 0003126 277.6042  62.6015 14.96720823 37389,6955.174,96.21,579.2130000000002,574.864,0.0
49146.0,STARLINK-3116,PAYLOAD,2022-05-06 14:00:01,14.9670021,0.0003178,69.9981,211.4679,279.3065,51.9873,0.0027645,0.00031682,0.0,0 STARLINK-3116,1 49146U 21082S   22126.58334491  .00031682  00000-0  27645-2 0  9993,2 49146  69.9981 211.4679 0003178 279.3065  51.9873 14.96700210 37484,6955.236999999999,96.212,579.313,574.8919999999998,0.0
49146.0,STARLINK-3116,PAYLOAD,2022-05-07 06:00:02,14.96745521,0.0003131,69.9982,209.7912,273.4847,48.958,-0.0027162,-0.00031067,0.0,0 STARLINK-3116,1 49146U 21082S   22127.25002315 -.00031067  00000-0 -27162-2 0  9998,2 49146  69.9982 209.7912 0003131 273.4847  48.9580 14.96745521 37583,6955.097,96.209,579.14,574.784,0.0
49146.0,STARLINK-3116,PAYLOAD,2022-05-07 14:00:01,14.96690643,0.0003076,69.998,208.9528,280.4692,37.4881,0.002143,0.00024507,0.0,0 STARLINK-3116,1 49146U 21082S   22127.58334491  .00024507  00000-0  21430-2 0  9998,2 49146  69.9980 208.9528 0003076 280.4692  37.4881 14.96690643  3583,6955.267,96.212,579.2719999999998,574.993,0.0
49146.0,STARLINK-3116,PAYLOAD,2022-05-07 22:00:00,14.96716123,0.0003015,69.9977,208.1144,278.2125,35.2749,-0.0025588,-0.00029257,0.0,0 STARLINK-3116,1 49146U 21082S   22127.91667824 -.00029257  00000-0 -25588-2 0  9991,2 49146  69.9977 208.1144 0003015 278.2125  35.2749 14.96716123  3574,6955.188,96.211,579.15,574.956,0.0
